{
    "links": {
        "self": "http://www.neowsapp.com/rest/v1/neo/3774621?api_key=iIulBulltgU6a56xZRHN4H3l9WmuAYTsLGpBGhQ2"
    },
    "id": "3774621",
    "neo_reference_id": "3774621",
    "name": "(2017 JL3)",
    "designation": "2017 JL3",
    "nasa_jpl_url": "http://ssd.jpl.nasa.gov/sbdb.cgi?sstr=3774621",
    "absolute_magnitude_h": 23.0,
    "estimated_diameter": {
        "kilometers": {
            "estimated_diameter_min": 0.0667659413,
            "estimated_diameter_max": 0.1492931834
        },
        "meters": {
            "estimated_diameter_min": 66.7659413495,
            "estimated_diameter_max": 149.2931834393
        },
        "miles": {
            "estimated_diameter_min": 0.0414864197,
            "estimated_diameter_max": 0.0927664547
        },
        "feet": {
            "estimated_diameter_min": 219.0483710172,
            "estimated_diameter_max": 489.807047955
        }
    },
    "is_potentially_hazardous_asteroid": false,
    "close_approach_data": [
        {
            "close_approach_date": "2008-06-24",
            "close_approach_date_full": "2008-Jun-24 04:23",
            "epoch_date_close_approach": 1214281380000,
            "relative_velocity": {
                "kilometers_per_second": "11.1416873517",
                "kilometers_per_hour": "40110.0744662849",
                "miles_per_hour": "24922.8404371202"
            },
            "miss_distance": {
                "astronomical": "0.2857698402",
                "lunar": "111.1644678378",
                "kilometers": "42750559.404160374",
                "miles": "26563965.8262822012"
            },
            "orbiting_body": "Earth"
        },
        {
            "close_approach_date": "2017-06-03",
            "close_approach_date_full": "2017-Jun-03 20:15",
            "epoch_date_close_approach": 1496520900000,
            "relative_velocity": {
                "kilometers_per_second": "9.9590424285",
                "kilometers_per_hour": "35852.552742704",
                "miles_per_hour": "22277.3820083763"
            },
            "miss_distance": {
                "astronomical": "0.0818620757",
                "lunar": "31.8443474473",
                "kilometers": "12246392.158498759",
                "miles": "7609555.2275265142"
            },
            "orbiting_body": "Earth"
        },
        {
            "close_approach_date": "2026-05-19",
            "close_approach_date_full": "2026-May-19 16:27",
            "epoch_date_close_approach": 1779208020000,
            "relative_velocity": {
                "kilometers_per_second": "14.8505784213",
                "kilometers_per_hour": "53462.0823166224",
                "miles_per_hour": "33219.2588705702"
            },
            "miss_distance": {
                "astronomical": "0.3080937713",
                "lunar": "119.8484770357",
                "kilometers": "46090171.946747131",
                "miles": "28639104.8347711678"
            },
            "orbiting_body": "Earth"
        }
    ],
    "orbital_data": {
        "orbit_id": "14",
        "orbit_determination_date": "2017-09-18 06:54:07",
        "first_observation_date": "2017-05-15",
        "last_observation_date": "2017-06-20",
        "data_arc_in_days": 36,
        "observations_used": 71,
        "orbit_uncertainty": "7",
        "minimum_orbit_intersection": ".0811313",
        "jupiter_tisserand_invariant": "4.065",
        "epoch_osculation": "2459000.5",
        "eccentricity": ".3682493488880893",
        "semi_major_axis": "1.711138263553613",
        "inclination": "16.10099028170383",
        "ascending_node_longitude": "69.2060083926352",
        "orbital_period": "817.5721350261001",
        "perihelion_distance": "1.081012712142499",
        "perihelion_argument": "200.4232890683018",
        "aphelion_distance": "2.341263814964727",
        "perihelion_time": "2458741.535337626636",
        "mean_anomaly": "114.029422555399",
        "mean_motion": ".4403281185561778",
        "equinox": "J2000",
        "orbit_class": {
            "orbit_class_type": "AMO",
            "orbit_class_description": "Near-Earth asteroid orbits similar to that of 1221 Amor",
            "orbit_class_range": "1.017 AU < q (perihelion) < 1.3 AU"
        }
    },
    "is_sentry_object": false
}